[{"OBJECT_NAME":"STARLINK-33720","OBJECT_ID":"2025-070J","EPOCH":"2026-03-09T13:05:02.321664","MEAN_MOTION":15.27590949,"ECCENTRICITY":6.236e-5,"INCLINATION":42.9952,"RA_OF_ASC_NODE":260.6789,"ARG_OF_PERICENTER":340.746,"MEAN_ANOMALY":19.3367,"EPHEMERIS_TYPE":0,"CLASSIFICATION_TYPE":"U","NORAD_CAT_ID":63468,"ELEMENT_SET_NO":999,"REV_AT_EPOCH":5295,"BSTAR":0.00083312144,"MEAN_MOTION_DOT":0.00022742,"MEAN_MOTION_DDOT":0},{"OBJECT_NAME":"GEOSCAN 2 (RS92S2)","OBJECT_ID":"2025-155Q","EPOCH":"2026-03-09T23:01:48.939744","MEAN_MOTION":15.28709337,"ECCENTRICITY":0.00085277,"INCLINATION":97.4463,"RA_OF_ASC_NODE":37.5259,"ARG_OF_PERICENTER":140.9505,"MEAN_ANOMALY":219.2352,"EPHEMERIS_TYPE":0,"CLASSIFICATION_TYPE":"U","NORAD_CAT_ID":64890,"ELEMENT_SET_NO":999,"REV_AT_EPOCH":6561,"BSTAR":0.00051551761,"MEAN_MOTION_DOT":0.00014341,"MEAN_MOTION_DDOT":0}]
